{"type": "FeatureCollection", "features": [{"type": "Feature", "properties": {"norad_id": 24946, "name": "IRIDIUM 33", "group": "iridium-33-debris", "lat": -10.74717501836122, "lon": -108.78074927571622, "alt_km": 775.3718529756516, "timestamp": "2025-12-07T05:38:10.288438+00:00", "meta": {"OBJECT_NAME": "IRIDIUM 33", "OBJECT_ID": "1997-051C", "EPOCH": "2025-12-06T15:21:43.633440", "MEAN_MOTION": 14.35030736, "ECCENTRICITY": 0.00063953, "INCLINATION": 86.387, "RA_OF_ASC_NODE": 70.7817, "ARG_OF_PERICENTER": 223.4108, "MEAN_ANOMALY": 136.6585, "EPHEMERIS_TYPE": 0, "CLASSIFICATION_TYPE": "U", "NORAD_CAT_ID": 24946, "ELEMENT_SET_NO": 999, "REV_AT_EPOCH": 47747, "BSTAR": 0.00023931477, "MEAN_MOTION_DOT": 7.01e-06, "MEAN_MOTION_DDOT": 0}, "tle": {"line1": "1 24946U 97051C   25340.64008835  .00000701  00000+0  23931-3 0  9993", "line2": "2 24946  86.3870  70.7817 0006395 223.4108 136.6585 14.35030736477477"}}, "geometry": {"type": "Point", "coordinates": [-108.78074927571622, -10.74717501836122]}}, {"type": "Feature", "properties": {"norad_id": 33773, "name": "IRIDIUM 33 DEB", "group": "iridium-33-debris", "lat": -14.945021084098343, "lon": 61.95984368561776, "alt_km": 761.0811608560143, "timestamp": "2025-12-07T05:38:10.288468+00:00", "meta": {"OBJECT_NAME": "IRIDIUM 33 DEB", "OBJECT_ID": "1997-051L", "EPOCH": "2025-12-06T14:43:46.808544", "MEAN_MOTION": 14.43237139, "ECCENTRICITY": 0.00119079, "INCLINATION": 86.4017, "RA_OF_ASC_NODE": 63.1853, "ARG_OF_PERICENTER": 164.801, "MEAN_ANOMALY": 195.3551, "EPHEMERIS_TYPE": 0, "CLASSIFICATION_TYPE": "U", "NORAD_CAT_ID": 33773, "ELEMENT_SET_NO": 999, "REV_AT_EPOCH": 88259, "BSTAR": 0.00068037086, "MEAN_MOTION_DOT": 2.309e-05, "MEAN_MOTION_DDOT": 0}, "tle": {"line1": "1 33773U 97051L   25340.61373621  .00002309  00000+0  68037-3 0  9998", "line2": "2 33773  86.4017  63.1853 0011907 164.8010 195.3551 14.43237139882593"}}, "geometry": {"type": "Point", "coordinates": [61.95984368561776, -14.945021084098343]}}, {"type": "Feature", "properties": {"norad_id": 33775, "name": "IRIDIUM 33 DEB", "group": "iridium-33-debris", "lat": 75.62089644062583, "lon": -142.45655972080115, "alt_km": 742.9847063058969, "timestamp": "2025-12-07T05:38:10.288483+00:00", "meta": {"OBJECT_NAME": "IRIDIUM 33 DEB", "OBJECT_ID": "1997-051N", "EPOCH": "2025-12-06T14:42:08.290944", "MEAN_MOTION": 14.41448127, "ECCENTRICITY": 0.0013586, "INCLINATION": 86.3642, "RA_OF_ASC_NODE": 52.1691, "ARG_OF_PERICENTER": 173.9227, "MEAN_ANOMALY": 303.2033, "EPHEMERIS_TYPE": 0, "CLASSIFICATION_TYPE": "U", "NORAD_CAT_ID": 33775, "ELEMENT_SET_NO": 999, "REV_AT_EPOCH": 88052, "BSTAR": 0.00063723429, "MEAN_MOTION_DOT": 2.087e-05, "MEAN_MOTION_DDOT": 0}, "tle": {"line1": "1 33775U 97051N   25340.61259596  .00002087  00000+0  63723-3 0  9994", "line2": "2 33775  86.3642  52.1691 0013586 173.9227 303.2033 14.41448127880527"}}, "geometry": {"type": "Point", "coordinates": [-142.45655972080115, 75.62089644062583]}}, {"type": "Feature", "properties": {"norad_id": 33776, "name": "IRIDIUM 33 DEB", "group": "iridium-33-debris", "lat": 37.49664045599375, "lon": 85.8531758085627, "alt_km": 771.408674094665, "timestamp": "2025-12-07T05:38:10.288497+00:00", "meta": {"OBJECT_NAME": "IRIDIUM 33 DEB", "OBJECT_ID": "1997-051P", "EPOCH": "2025-12-06T12:48:52.579296", "MEAN_MOTION": 14.38216694, "ECCENTRICITY": 0.00136613, "INCLINATION": 86.4036, "RA_OF_ASC_NODE": 83.3817, "ARG_OF_PERICENTER": 211.7176, "MEAN_ANOMALY": 159.3135, "EPHEMERIS_TYPE": 0, "CLASSIFICATION_TYPE": "U", "NORAD_CAT_ID": 33776, "ELEMENT_SET_NO": 999, "REV_AT_EPOCH": 87993, "BSTAR": 0.00060095793, "MEAN_MOTION_DOT": 1.846e-05, "MEAN_MOTION_DDOT": 0}, "tle": {"line1": "1 33776U 97051P   25340.53394189  .00001846  00000+0  60096-3 0  9996", "line2": "2 33776  86.4036  83.3817 0013661 211.7176 159.3135 14.38216694879934"}}, "geometry": {"type": "Point", "coordinates": [85.8531758085627, 37.49664045599375]}}, {"type": "Feature", "properties": {"norad_id": 33777, "name": "IRIDIUM 33 DEB", "group": "iridium-33-debris", "lat": -21.97440684707514, "lon": -140.93754608586823, "alt_km": 712.0120544043948, "timestamp": "2025-12-07T05:38:10.288508+00:00", "meta": {"OBJECT_NAME": "IRIDIUM 33 DEB", "OBJECT_ID": "1997-051Q", "EPOCH": "2025-12-06T15:30:41.304960", "MEAN_MOTION": 14.55545884, "ECCENTRICITY": 0.00050971, "INCLINATION": 86.3789, "RA_OF_ASC_NODE": 37.8541, "ARG_OF_PERICENTER": 277.8522, "MEAN_ANOMALY": 82.2107, "EPHEMERIS_TYPE": 0, "CLASSIFICATION_TYPE": "U", "NORAD_CAT_ID": 33777, "ELEMENT_SET_NO": 999, "REV_AT_EPOCH": 88445, "BSTAR": 0.0016217389, "MEAN_MOTION_DOT": 7.087e-05, "MEAN_MOTION_DDOT": 0}, "tle": {"line1": "1 33777U 97051Q   25340.64631140  .00007087  00000+0  16217-2 0  9998", "line2": "2 33777  86.3789  37.8541 0005097 277.8522  82.2107 14.55545884884450"}}, "geometry": {"type": "Point", "coordinates": [-140.93754608586823, -21.97440684707514]}}, {"type": "Feature", "properties": {"norad_id": 33850, "name": "IRIDIUM 33 DEB", "group": "iridium-33-debris", "lat": 71.00852561349629, "lon": 43.258678298057205, "alt_km": 747.0491235802438, "timestamp": "2025-12-07T05:38:10.288520+00:00", "meta": {"OBJECT_NAME": "IRIDIUM 33 DEB", "OBJECT_ID": "1997-051T", "EPOCH": "2025-12-06T14:51:22.381056", "MEAN_MOTION": 14.42127892, "ECCENTRICITY": 0.00116223, "INCLINATION": 86.3422, "RA_OF_ASC_NODE": 32.8115, "ARG_OF_PERICENTER": 179.9702, "MEAN_ANOMALY": 296.383, "EPHEMERIS_TYPE": 0, "CLASSIFICATION_TYPE": "U", "NORAD_CAT_ID": 33850, "ELEMENT_SET_NO": 999, "REV_AT_EPOCH": 88064, "BSTAR": 0.00071044895, "MEAN_MOTION_DOT": 2.357e-05, "MEAN_MOTION_DDOT": 0}, "tle": {"line1": "1 33850U 97051T   25340.61900904  .00002357  00000+0  71045-3 0  9990", "line2": "2 33850  86.3422  32.8115 0011622 179.9702 296.3830 14.42127892880640"}}, "geometry": {"type": "Point", "coordinates": [43.258678298057205, 71.00852561349629]}}, {"type": "Feature", "properties": {"norad_id": 33853, "name": "IRIDIUM 33 DEB", "group": "iridium-33-debris", "lat": -46.34080579509347, "lon": 176.43092800193347, "alt_km": 768.7667230002453, "timestamp": "2025-12-07T05:38:10.288532+00:00", "meta": {"OBJECT_NAME": "IRIDIUM 33 DEB", "OBJECT_ID": "1997-051W", "EPOCH": "2025-12-06T01:20:40.145280", "MEAN_MOTION": 13.98996875, "ECCENTRICITY": 0.02068178, "INCLINATION": 85.9999, "RA_OF_ASC_NODE": 352.7424, "ARG_OF_PERICENTER": 256.5072, "MEAN_ANOMALY": 157.5204, "EPHEMERIS_TYPE": 0, "CLASSIFICATION_TYPE": "U", "NORAD_CAT_ID": 33853, "ELEMENT_SET_NO": 999, "REV_AT_EPOCH": 85252, "BSTAR": 0.0034440832, "MEAN_MOTION_DOT": 5.992e-05, "MEAN_MOTION_DDOT": 0}, "tle": {"line1": "1 33853U 97051W   25340.05602020  .00005992  00000+0  34441-2 0  9995", "line2": "2 33853  85.9999 352.7424 0206817 256.5072 157.5204 13.98996875852522"}}, "geometry": {"type": "Point", "coordinates": [176.43092800193347, -46.34080579509347]}}, {"type": "Feature", "properties": {"norad_id": 33860, "name": "IRIDIUM 33 DEB", "group": "iridium-33-debris", "lat": -47.140258688189796, "lon": -146.41731802350898, "alt_km": 681.7116623563497, "timestamp": "2025-12-07T05:38:10.288544+00:00", "meta": {"OBJECT_NAME": "IRIDIUM 33 DEB", "OBJECT_ID": "1997-051AD", "EPOCH": "2025-12-06T14:28:14.396160", "MEAN_MOTION": 14.67248023, "ECCENTRICITY": 0.00082636, "INCLINATION": 86.3839, "RA_OF_ASC_NODE": 29.9545, "ARG_OF_PERICENTER": 18.1791, "MEAN_ANOMALY": 113.4644, "EPHEMERIS_TYPE": 0, "CLASSIFICATION_TYPE": "U", "NORAD_CAT_ID": 33860, "ELEMENT_SET_NO": 999, "REV_AT_EPOCH": 88632, "BSTAR": 0.0020522142, "MEAN_MOTION_DOT": 0.00011597, "MEAN_MOTION_DDOT": 0}, "tle": {"line1": "1 33860U 97051AD  25340.60294440  .00011597  00000+0  20522-2 0  9990", "line2": "2 33860  86.3839  29.9545 0008263  18.1791 113.4644 14.67248023886326"}}, "geometry": {"type": "Point", "coordinates": [-146.41731802350898, -47.140258688189796]}}, {"type": "Feature", "properties": {"norad_id": 33862, "name": "IRIDIUM 33 DEB", "group": "iridium-33-debris", "lat": -41.54442679557387, "lon": -136.85248328367328, "alt_km": 696.1097637326984, "timestamp": "2025-12-07T05:38:10.288555+00:00", "meta": {"OBJECT_NAME": "IRIDIUM 33 DEB", "OBJECT_ID": "1997-051AF", "EPOCH": "2025-12-06T16:06:19.016352", "MEAN_MOTION": 14.69329507, "ECCENTRICITY": 0.00538322, "INCLINATION": 86.4092, "RA_OF_ASC_NODE": 40.2062, "ARG_OF_PERICENTER": 89.4198, "MEAN_ANOMALY": 31.4086, "EPHEMERIS_TYPE": 0, "CLASSIFICATION_TYPE": "U", "NORAD_CAT_ID": 33862, "ELEMENT_SET_NO": 999, "REV_AT_EPOCH": 88734, "BSTAR": 0.0024762075, "MEAN_MOTION_DOT": 0.0001499, "MEAN_MOTION_DDOT": 0}, "tle": {"line1": "1 33862U 97051AF  25340.67105343  .00014990  00000+0  24762-2 0  9992", "line2": "2 33862  86.4092  40.2062 0053832  89.4198  31.4086 14.69329507887345"}}, "geometry": {"type": "Point", "coordinates": [-136.85248328367328, -41.54442679557387]}}, {"type": "Feature", "properties": {"norad_id": 33866, "name": "IRIDIUM 33 DEB", "group": "iridium-33-debris", "lat": 78.01229224475996, "lon": 113.10538838429676, "alt_km": 814.2168792664352, "timestamp": "2025-12-07T05:38:10.288566+00:00", "meta": {"OBJECT_NAME": "IRIDIUM 33 DEB", "OBJECT_ID": "1997-051AK", "EPOCH": "2025-12-06T14:11:47.218272", "MEAN_MOTION": 14.25241969, "ECCENTRICITY": 0.01139826, "INCLINATION": 86.3005, "RA_OF_ASC_NODE": 95.6368, "ARG_OF_PERICENTER": 180.9906, "MEAN_ANOMALY": 200.1647, "EPHEMERIS_TYPE": 0, "CLASSIFICATION_TYPE": "U", "NORAD_CAT_ID": 33866, "ELEMENT_SET_NO": 999, "REV_AT_EPOCH": 86723, "BSTAR": 0.0013124184, "MEAN_MOTION_DOT": 3.32e-05, "MEAN_MOTION_DDOT": 0}, "tle": {"line1": "1 33866U 97051AK  25340.59151873  .00003320  00000+0  13124-2 0  9991", "line2": "2 33866  86.3005  95.6368 0113982 180.9906 200.1647 14.25241969867233"}}, "geometry": {"type": "Point", "coordinates": [113.10538838429676, 78.01229224475996]}}]}